STARLINK-33688          
1 63483U 25070Z   26160.55161203  .00014926  00000+0  55081-3 0  9999
2 63483  43.0039 101.1568 0000953 287.4127  72.6620 15.27580178 67027
STARLINK-33700          
1 63484U 25070AA  26160.53231704  .00016180  00000+0  59591-3 0  9996
2 63484  42.9955 101.0077 0001925 275.7631  84.3001 15.27595050 67025
STARLINK-33687          
1 63485U 25070AB  26160.52075710  .00016936  00000+0  62345-3 0  9999
2 63485  43.0000 100.8783 0001216 282.2346  77.8369 15.27585197 67024
STARLINK-33716          
1 63486U 25070AC  26160.52589293  .00015886  00000+0  58518-3 0  9996
2 63486  42.9997 100.9702 0001221 265.9126  94.1586 15.27602257 67020
STARLINK-33754          
1 63487U 25070AD  26160.54644211  .00013633  00000+0  50377-3 0  9994
2 63487  43.0051 101.1194 0003928 263.4567  96.5837 15.27592589 67021
POSAT-2                 
1 63488U 25009DR  26160.98007490  .00012486  00000+0  71438-3 0  9993
2 63488  97.4847 236.1657 0006920 161.4171 198.7314 15.12771720 65555
HERMES-6                
1 63489U 25052BK  26160.65262390  .00006605  00000+0  28333-3 0  9990
2 63489  97.4017  53.2478 0006050 179.6158 180.5084 15.23045249 68686
STARLINK-33828          
1 63493U 25071A   26160.91668981 -.00015319  00000+0 -42916-3 0  9998
2 63493  53.1593  69.8905 0001318  95.4974 264.7610 15.35397194  5908
STARLINK-33819          
1 63494U 25071B   26160.45079941  .00048527  00000+0  11167-2 0  9998
2 63494  53.1574  71.9545 0000720  88.6075 271.5014 15.42182218 66823
STARLINK-33845          
1 63495U 25071C   26160.46711370  .00027653  00000+0  94198-3 0  9992
2 63495  53.1579  73.4711 0001322  79.1596 280.9554 15.30211289 66802
STARLINK-33829          
1 63496U 25071D   26160.48292945  .00023428  00000+0  80030-3 0  9993
2 63496  53.1616  73.5696 0001527  83.7620 276.3554 15.30212995 66763
STARLINK-33815          
1 63497U 25071E   26160.47935644  .00016855  00000+0  55332-3 0  9996
2 63497  53.1612  73.5524 0001559  78.6656 281.4521 15.31720763 66823
STARLINK-33833          
1 63498U 25071F   26160.91668981 -.00015278  00000+0 -48107-3 0  9995
2 63498  53.1606  71.6106 0001264  73.4680 127.9593 15.31732640  5873
STARLINK-33534          
1 63499U 25071G   26160.05517889  .00021251  00000+0  69427-3 0  9995
2 63499  53.1580  75.1736 0001337 112.6234 247.4909 15.31715266 66742
STARLINK-33838          
1 63500U 25071H   26160.79789721  .00020855  00000+0  71413-3 0  9992
2 63500  53.1588  71.9787 0001312 100.1893 259.9256 15.30206712 66663
STARLINK-33837          
1 63501U 25071J   26160.81960544  .00011887  00000+0  39407-3 0  9992
2 63501  53.1601  72.1149 0001299 108.0203 252.0940 15.31710568 66812
STARLINK-33818          
1 63502U 25071K   26160.07625801 -.00019041  00000+0 -63317-3 0  9994
2 63502  53.1587  75.2956 0000825 106.7228 253.3864 15.30160607 66767
STARLINK-33583          
1 63503U 25071L   26160.91668981  .00008054  00000+0  15278-3 0  9997
2 63503  53.1589  69.9014 0001286  92.4106 251.1433 15.49296419  5798
STARLINK-33811          
1 63504U 25071M   26160.05528135 -.00009031  00000+0 -29341-3 0  9993
2 63504  53.1585  75.8752 0001605  99.6621 260.4561 15.30171022 66699
STARLINK-33825          
1 63505U 25071N   26160.45865272  .00020182  00000+0  69129-3 0  9990
2 63505  53.1596  73.4150 0000888 117.2818 242.8273 15.30217399 66822
STARLINK-33792          
1 63506U 25071P   26160.46287379  .00010686  00000+0  37230-3 0  9994
2 63506  53.1566  73.4392 0001105  71.2218 288.8902 15.30209174 66779
STARLINK-33843          
1 63507U 25071Q   26160.48186389  .00014033  00000+0  48480-3 0  9995
2 63507  53.1622  73.5277 0001306  71.9861 288.1282 15.30214989 66808
STARLINK-33809          
1 63508U 25071R   26160.07838377  .00029991  00000+0  10198-2 0  9995
2 63508  53.1591  75.2785 0001198  85.7454 274.3683 15.30226668 66705
STARLINK-33678          
1 63509U 25071S   26160.05050350  .00018394  00000+0  60268-3 0  9990
2 63509  53.1580  75.1017 0001204  84.9117 275.2022 15.31718492 66491
STARLINK-33764          
1 63510U 25071T   26160.05843284  .00015852  00000+0  54603-3 0  9990
2 63510  53.1576  75.8578 0001083  93.4344 266.6781 15.30210521 66731
STARLINK-33804          
1 63511U 25071U   26160.47467877  .00014209  00000+0  46851-3 0  9998
2 63511  53.1610  73.4811 0000663  79.2791 280.8285 15.31716582 66451
STARLINK-33751          
1 63512U 25071V   26160.07384132  .00009409  00000+0  31446-3 0  9997
2 63512  53.1604  75.2448 0001297  92.4084 267.7066 15.31711848 66740
STARLINK-33750          
1 63513U 25071W   26160.45600502  .00015088  00000+0  49662-3 0  9991
2 63513  53.1585  73.3650 0001134  96.4338 263.6793 15.31724163 66802
STARLINK-33786          
1 63514U 25071X   26160.05104502  .00029018  00000+0  98762-3 0  9990
2 63514  53.1581  75.8083 0001194  87.1638 272.9500 15.30214310 66370
STARLINK-33796          
1 63515U 25071Y   26160.46498060  .00019719  00000+0  67646-3 0  9995
2 63515  53.1590  73.4140 0001200  98.2672 261.8465 15.30184023 66822
