OBJECT_NAME,OBJECT_ID,EPOCH,MEAN_MOTION,ECCENTRICITY,INCLINATION,RA_OF_ASC_NODE,ARG_OF_PERICENTER,MEAN_ANOMALY,EPHEMERIS_TYPE,CLASSIFICATION_TYPE,NORAD_CAT_ID,ELEMENT_SET_NO,REV_AT_EPOCH,BSTAR,MEAN_MOTION_DOT,MEAN_MOTION_DDOT
STARLINK-33688,2025-070Z,2026-06-09T13:14:19.279392,15.27580178,.00009534,43.0039,101.1568,287.4127,72.6620,0,U,63483,999,6702,.55081348E-3,.14926E-3,0
STARLINK-33700,2025-070AA,2026-06-09T12:46:32.192256,15.27595050,.00019252,42.9955,101.0077,275.7631,84.3001,0,U,63484,999,6702,.59591062E-3,.1618E-3,0
STARLINK-33687,2025-070AB,2026-06-09T12:29:53.413440,15.27585197,.00012167,43.0000,100.8783,282.2346,77.8369,0,U,63485,999,6702,.6234514E-3,.16936E-3,0
STARLINK-33716,2025-070AC,2026-06-09T12:37:17.149152,15.27602257,.00012216,42.9997,100.9702,265.9126,94.1586,0,U,63486,999,6702,.58518323E-3,.15886E-3,0
STARLINK-33754,2025-070AD,2026-06-09T13:06:52.598304,15.27592589,.00039288,43.0051,101.1194,263.4567,96.5837,0,U,63487,999,6702,.50377208E-3,.13633E-3,0
POSAT-2,2025-009DR,2026-06-09T23:31:18.471360,15.12771720,.00069207,97.4847,236.1657,161.4171,198.7314,0,U,63488,999,6555,.71438283E-3,.12486E-3,0
HERMES-6,2025-052BK,2026-06-09T15:39:46.704960,15.23045249,.00060502,97.4017,53.2478,179.6158,180.5084,0,U,63489,999,6868,.28333004E-3,.6605E-4,0
STARLINK-33828,2025-071A,2026-06-09T22:00:01.999584,15.35397194,.00013181,53.1593,69.8905,95.4974,264.7610,0,U,63493,999,590,-.42915569E-3,-.15319E-3,0
STARLINK-33819,2025-071B,2026-06-09T10:49:09.069024,15.42182218,.00007203,53.1574,71.9545,88.6075,271.5014,0,U,63494,999,6682,.11167109E-2,.48527E-3,0
STARLINK-33845,2025-071C,2026-06-09T11:12:38.623680,15.30211289,.00013224,53.1579,73.4711,79.1596,280.9554,0,U,63495,999,6680,.94197655E-3,.27653E-3,0
STARLINK-33829,2025-071D,2026-06-09T11:35:25.104480,15.30212995,.00015272,53.1616,73.5696,83.7620,276.3554,0,U,63496,999,6676,.80029745E-3,.23428E-3,0
STARLINK-33815,2025-071E,2026-06-09T11:30:16.396416,15.31720763,.00015593,53.1612,73.5524,78.6656,281.4521,0,U,63497,999,6682,.55332383E-3,.16855E-3,0
STARLINK-33833,2025-071F,2026-06-09T22:00:01.999584,15.31732640,.00012645,53.1606,71.6106,73.4680,127.9593,0,U,63498,999,587,-.48106949E-3,-.15278E-3,0
STARLINK-33534,2025-071G,2026-06-09T01:19:27.456096,15.31715266,.00013371,53.1580,75.1736,112.6234,247.4909,0,U,63499,999,6674,.69427089E-3,.21251E-3,0
STARLINK-33838,2025-071H,2026-06-09T19:08:58.318944,15.30206712,.00013129,53.1588,71.9787,100.1893,259.9256,0,U,63500,999,6666,.71413098E-3,.20855E-3,0
STARLINK-33837,2025-071J,2026-06-09T19:40:13.910016,15.31710568,.00012992,53.1601,72.1149,108.0203,252.0940,0,U,63501,999,6681,.39407179E-3,.11887E-3,0
STARLINK-33818,2025-071K,2026-06-09T01:49:48.692064,15.30160607,.0000825,53.1587,75.2956,106.7228,253.3864,0,U,63502,999,6676,-.63316692E-3,-.19041E-3,0
STARLINK-33583,2025-071L,2026-06-09T22:00:01.999584,15.49296419,.00012868,53.1589,69.9014,92.4106,251.1433,0,U,63503,999,579,.1527787E-3,.8054E-4,0
STARLINK-33811,2025-071M,2026-06-09T01:19:36.308640,15.30171022,.0001605,53.1585,75.8752,99.6621,260.4561,0,U,63504,999,6669,-.29340909E-3,-.9031E-4,0
STARLINK-33825,2025-071N,2026-06-09T11:00:27.595008,15.30217399,.00008887,53.1596,73.4150,117.2818,242.8273,0,U,63505,999,6682,.69129199E-3,.20182E-3,0
STARLINK-33792,2025-071P,2026-06-09T11:06:32.295456,15.30209174,.00011051,53.1566,73.4392,71.2218,288.8902,0,U,63506,999,6677,.37230336E-3,.10686E-3,0
STARLINK-33843,2025-071Q,2026-06-09T11:33:53.040096,15.30214989,.00013066,53.1622,73.5277,71.9861,288.1282,0,U,63507,999,6680,.48480282E-3,.14033E-3,0
STARLINK-33809,2025-071R,2026-06-09T01:52:52.357728,15.30226668,.00011981,53.1591,75.2785,85.7454,274.3683,0,U,63508,999,6670,.10198041E-2,.29991E-3,0
STARLINK-33678,2025-071S,2026-06-09T01:12:43.502400,15.31718492,.0001204,53.1580,75.1017,84.9117,275.2022,0,U,63509,999,6649,.60267815E-3,.18394E-3,0
STARLINK-33764,2025-071T,2026-06-09T01:24:08.597376,15.30210521,.0001083,53.1576,75.8578,93.4344,266.6781,0,U,63510,999,6673,.5460309E-3,.15852E-3,0
STARLINK-33804,2025-071U,2026-06-09T11:23:32.245728,15.31716582,.00006631,53.1610,73.4811,79.2791,280.8285,0,U,63511,999,6645,.46851237E-3,.14209E-3,0
STARLINK-33751,2025-071V,2026-06-09T01:46:19.890048,15.31711848,.00012978,53.1604,75.2448,92.4084,267.7066,0,U,63512,999,6674,.31446302E-3,.9409E-4,0
STARLINK-33750,2025-071W,2026-06-09T10:56:38.833728,15.31724163,.00011349,53.1585,73.3650,96.4338,263.6793,0,U,63513,999,6680,.49661751E-3,.15088E-3,0
STARLINK-33786,2025-071X,2026-06-09T01:13:30.289728,15.30214310,.00011941,53.1581,75.8083,87.1638,272.9500,0,U,63514,999,6637,.98761938E-3,.29018E-3,0
STARLINK-33796,2025-071Y,2026-06-09T11:09:34.323840,15.30184023,.00012009,53.1590,73.4140,98.2672,261.8465,0,U,63515,999,6682,.67645886E-3,.19719E-3,0
